COSMOS 2151             
1 21422U 91042A   25331.14319229  .00002501  00000+0  20079-3 0  9990
2 21422  82.4969 182.5317 0013784  49.6465 310.5960 14.99604159847826
SL-14 R/B               
1 21423U 91042B   25330.97986145  .00000550  00000+0  66720-4 0  9994
2 21423  82.4915 316.5036 0016086 214.2974 145.7203 14.81716856837868
ERS-1                   
1 21574U 91050A   25330.60932502  .00000383  00000+0  13719-3 0  9991
2 21574  98.7915 341.2604 0032581 146.5913 213.7338 14.39346205800909
ARIANE 40 R/B           
1 21610U 91050F   25330.76664008  .00000439  00000+0  14436-3 0  9991
2 21610  98.2187  21.7721 0003734  44.4481 315.7009 14.42793306804151
INTERCOSMOS 25          
1 21819U 91086A   25330.53588302  .00001288  00000+0  25354-3 0  9992
2 21819  82.6066  12.3742 1487449 339.3362  15.3131 12.11644502484192
SL-8 R/B                
1 21876U 92008B   25330.54751196  .00000152  00000+0  13973-3 0  9997
2 21876  82.9267 344.4919 0035952  63.9064  54.2112 13.75953796695231
SL-8 R/B                
1 21938U 92020B   25331.21202186  .00000074  00000+0  60758-4 0  9992
2 21938  82.9316 229.8466 0027959 222.2655 249.5409 13.75523984687042
USA 81                  
1 21949U 92023A   25331.03610932  .00000211  00000+0  70840-4 0  9995
2 21949  85.0094 190.6318 0002137  65.6436 294.4980 14.32318638 80096
COSMOS 2219             
1 22219U 92076A   25330.94974940 -.00000216  00000+0 -88858-4 0  9990
2 22219  71.0605 232.8388 0018576 348.9766  11.0946 14.14066171703856
SL-16 R/B               
1 22220U 92076B   25330.71240726  .00000305  00000+0  17579-3 0  9993
2 22220  71.0015  45.2926 0015090 254.9195 276.2183 14.16838061707249
COSMOS 2221             
1 22236U 92080A   25330.62816044  .00002534  00000+0  22517-3 0  9991
2 22236  82.5055  17.7450 0014794 173.0218 187.1212 14.95671325765387
SL-16 R/B               
1 22285U 92093B   25330.84306663 -.00000216  00000+0 -86430-4 0  9996
2 22285  71.0213 220.1648 0002007 120.0166 240.1156 14.15427303698601
