CCSDS_OMM_VERS = 2.0
CREATION_DATE  = 
ORIGINATOR     = 

OBJECT_NAME    = COSMOS 2151
OBJECT_ID      = 1991-042A
CENTER_NAME    = EARTH
REF_FRAME      = TEME
TIME_SYSTEM    = UTC
MEAN_ELEMENT_THEORY = SGP/SGP4

EPOCH          = 2025-11-27T03:26:11.813856
MEAN_MOTION    = 14.99604159
ECCENTRICITY   = .0013784
INCLINATION    = 82.4969
RA_OF_ASC_NODE = 182.5317
ARG_OF_PERICENTER = 49.6465
MEAN_ANOMALY   = 310.5960

EPHEMERIS_TYPE = 0
CLASSIFICATION_TYPE = U
NORAD_CAT_ID   = 21422
ELEMENT_SET_NO = 999
REV_AT_EPOCH   = 84782
BSTAR          = .20079E-3
MEAN_MOTION_DOT = .2501E-4
MEAN_MOTION_DDOT = 0

CCSDS_OMM_VERS = 2.0
CREATION_DATE  = 
ORIGINATOR     = 

OBJECT_NAME    = SL-14 R/B
OBJECT_ID      = 1991-042B
CENTER_NAME    = EARTH
REF_FRAME      = TEME
TIME_SYSTEM    = UTC
MEAN_ELEMENT_THEORY = SGP/SGP4

EPOCH          = 2025-11-26T23:31:00.029280
MEAN_MOTION    = 14.81716856
ECCENTRICITY   = .0016086
INCLINATION    = 82.4915
RA_OF_ASC_NODE = 316.5036
ARG_OF_PERICENTER = 214.2974
MEAN_ANOMALY   = 145.7203

EPHEMERIS_TYPE = 0
CLASSIFICATION_TYPE = U
NORAD_CAT_ID   = 21423
ELEMENT_SET_NO = 999
REV_AT_EPOCH   = 83786
BSTAR          = .6672E-4
MEAN_MOTION_DOT = .55E-5
MEAN_MOTION_DDOT = 0

CCSDS_OMM_VERS = 2.0
CREATION_DATE  = 
ORIGINATOR     = 

OBJECT_NAME    = ERS-1
OBJECT_ID      = 1991-050A
CENTER_NAME    = EARTH
REF_FRAME      = TEME
TIME_SYSTEM    = UTC
MEAN_ELEMENT_THEORY = SGP/SGP4

EPOCH          = 2025-11-26T14:37:25.681728
MEAN_MOTION    = 14.39346205
ECCENTRICITY   = .00325811
INCLINATION    = 98.7915
RA_OF_ASC_NODE = 341.2604
ARG_OF_PERICENTER = 146.5913
MEAN_ANOMALY   = 213.7338

EPHEMERIS_TYPE = 0
CLASSIFICATION_TYPE = U
NORAD_CAT_ID   = 21574
ELEMENT_SET_NO = 999
REV_AT_EPOCH   = 80090
BSTAR          = .13718827E-3
MEAN_MOTION_DOT = .383E-5
MEAN_MOTION_DDOT = 0

CCSDS_OMM_VERS = 2.0
CREATION_DATE  = 
ORIGINATOR     = 

OBJECT_NAME    = ARIANE 40 R/B
OBJECT_ID      = 1991-050F
CENTER_NAME    = EARTH
REF_FRAME      = TEME
TIME_SYSTEM    = UTC
MEAN_ELEMENT_THEORY = SGP/SGP4

EPOCH          = 2025-11-26T18:23:57.702912
MEAN_MOTION    = 14.42793306
ECCENTRICITY   = .00037346
INCLINATION    = 98.2187
RA_OF_ASC_NODE = 21.7721
ARG_OF_PERICENTER = 44.4481
MEAN_ANOMALY   = 315.7009

EPHEMERIS_TYPE = 0
CLASSIFICATION_TYPE = U
NORAD_CAT_ID   = 21610
ELEMENT_SET_NO = 999
REV_AT_EPOCH   = 80415
BSTAR          = .14435887E-3
MEAN_MOTION_DOT = .439E-5
MEAN_MOTION_DDOT = 0

CCSDS_OMM_VERS = 2.0
CREATION_DATE  = 
ORIGINATOR     = 

OBJECT_NAME    = INTERCOSMOS 25
OBJECT_ID      = 1991-086A
CENTER_NAME    = EARTH
REF_FRAME      = TEME
TIME_SYSTEM    = UTC
MEAN_ELEMENT_THEORY = SGP/SGP4

EPOCH          = 2025-11-26T12:51:40.292928
MEAN_MOTION    = 12.11644502
ECCENTRICITY   = .14874499
INCLINATION    = 82.6066
RA_OF_ASC_NODE = 12.3742
ARG_OF_PERICENTER = 339.3362
MEAN_ANOMALY   = 15.3131

EPHEMERIS_TYPE = 0
CLASSIFICATION_TYPE = U
NORAD_CAT_ID   = 21819
ELEMENT_SET_NO = 999
REV_AT_EPOCH   = 48419
BSTAR          = .25353657E-3
MEAN_MOTION_DOT = .1288E-4
MEAN_MOTION_DDOT = 0

CCSDS_OMM_VERS = 2.0
CREATION_DATE  = 
ORIGINATOR     = 

OBJECT_NAME    = SL-8 R/B
OBJECT_ID      = 1992-008B
CENTER_NAME    = EARTH
REF_FRAME      = TEME
TIME_SYSTEM    = UTC
MEAN_ELEMENT_THEORY = SGP/SGP4

EPOCH          = 2025-11-26T13:08:25.033344
MEAN_MOTION    = 13.75953796
ECCENTRICITY   = .00359522
INCLINATION    = 82.9267
RA_OF_ASC_NODE = 344.4919
ARG_OF_PERICENTER = 63.9064
MEAN_ANOMALY   = 54.2112

EPHEMERIS_TYPE = 0
CLASSIFICATION_TYPE = U
NORAD_CAT_ID   = 21876
ELEMENT_SET_NO = 999
REV_AT_EPOCH   = 69523
BSTAR          = .13973021E-3
MEAN_MOTION_DOT = .152E-5
MEAN_MOTION_DDOT = 0

CCSDS_OMM_VERS = 2.0
CREATION_DATE  = 
ORIGINATOR     = 

OBJECT_NAME    = SL-8 R/B
OBJECT_ID      = 1992-020B
CENTER_NAME    = EARTH
REF_FRAME      = TEME
TIME_SYSTEM    = UTC
MEAN_ELEMENT_THEORY = SGP/SGP4

EPOCH          = 2025-11-27T05:05:18.688704
MEAN_MOTION    = 13.75523984
ECCENTRICITY   = .0027959
INCLINATION    = 82.9316
RA_OF_ASC_NODE = 229.8466
ARG_OF_PERICENTER = 222.2655
MEAN_ANOMALY   = 249.5409

EPHEMERIS_TYPE = 0
CLASSIFICATION_TYPE = U
NORAD_CAT_ID   = 21938
ELEMENT_SET_NO = 999
REV_AT_EPOCH   = 68704
BSTAR          = .60758E-4
MEAN_MOTION_DOT = .74E-6
MEAN_MOTION_DDOT = 0

CCSDS_OMM_VERS = 2.0
CREATION_DATE  = 
ORIGINATOR     = 

OBJECT_NAME    = USA 81
OBJECT_ID      = 1992-023A
CENTER_NAME    = EARTH
REF_FRAME      = TEME
TIME_SYSTEM    = UTC
MEAN_ELEMENT_THEORY = SGP/SGP4

EPOCH          = 2025-11-27T00:51:59.845248
MEAN_MOTION    = 14.32318638
ECCENTRICITY   = .0002137
INCLINATION    = 85.0094
RA_OF_ASC_NODE = 190.6318
ARG_OF_PERICENTER = 65.6436
MEAN_ANOMALY   = 294.4980

EPHEMERIS_TYPE = 0
CLASSIFICATION_TYPE = U
NORAD_CAT_ID   = 21949
ELEMENT_SET_NO = 999
REV_AT_EPOCH   = 8009
BSTAR          = .7084E-4
MEAN_MOTION_DOT = .211E-5
MEAN_MOTION_DDOT = 0

CCSDS_OMM_VERS = 2.0
CREATION_DATE  = 
ORIGINATOR     = 

OBJECT_NAME    = COSMOS 2219
OBJECT_ID      = 1992-076A
CENTER_NAME    = EARTH
REF_FRAME      = TEME
TIME_SYSTEM    = UTC
MEAN_ELEMENT_THEORY = SGP/SGP4

EPOCH          = 2025-11-26T22:47:38.348160
MEAN_MOTION    = 14.14066171
ECCENTRICITY   = .00185764
INCLINATION    = 71.0605
RA_OF_ASC_NODE = 232.8388
ARG_OF_PERICENTER = 348.9766
MEAN_ANOMALY   = 11.0946

EPHEMERIS_TYPE = 0
CLASSIFICATION_TYPE = U
NORAD_CAT_ID   = 22219
ELEMENT_SET_NO = 999
REV_AT_EPOCH   = 70385
BSTAR          = -.88858339E-4
MEAN_MOTION_DOT = -.216E-5
MEAN_MOTION_DDOT = 0

CCSDS_OMM_VERS = 2.0
CREATION_DATE  = 
ORIGINATOR     = 

OBJECT_NAME    = SL-16 R/B
OBJECT_ID      = 1992-076B
CENTER_NAME    = EARTH
REF_FRAME      = TEME
TIME_SYSTEM    = UTC
MEAN_ELEMENT_THEORY = SGP/SGP4

EPOCH          = 2025-11-26T17:05:51.987264
MEAN_MOTION    = 14.16838061
ECCENTRICITY   = .00150906
INCLINATION    = 71.0015
RA_OF_ASC_NODE = 45.2926
ARG_OF_PERICENTER = 254.9195
MEAN_ANOMALY   = 276.2183

EPHEMERIS_TYPE = 0
CLASSIFICATION_TYPE = U
NORAD_CAT_ID   = 22220
ELEMENT_SET_NO = 999
REV_AT_EPOCH   = 70724
BSTAR          = .17579486E-3
MEAN_MOTION_DOT = .305E-5
MEAN_MOTION_DDOT = 0

CCSDS_OMM_VERS = 2.0
CREATION_DATE  = 
ORIGINATOR     = 

OBJECT_NAME    = COSMOS 2221
OBJECT_ID      = 1992-080A
CENTER_NAME    = EARTH
REF_FRAME      = TEME
TIME_SYSTEM    = UTC
MEAN_ELEMENT_THEORY = SGP/SGP4

EPOCH          = 2025-11-26T15:04:33.062016
MEAN_MOTION    = 14.95671325
ECCENTRICITY   = .00147949
INCLINATION    = 82.5055
RA_OF_ASC_NODE = 17.7450
ARG_OF_PERICENTER = 173.0218
MEAN_ANOMALY   = 187.1212

EPHEMERIS_TYPE = 0
CLASSIFICATION_TYPE = U
NORAD_CAT_ID   = 22236
ELEMENT_SET_NO = 999
REV_AT_EPOCH   = 76538
BSTAR          = .22516562E-3
MEAN_MOTION_DOT = .2534E-4
MEAN_MOTION_DDOT = 0

CCSDS_OMM_VERS = 2.0
CREATION_DATE  = 
ORIGINATOR     = 

OBJECT_NAME    = SL-16 R/B
OBJECT_ID      = 1992-093B
CENTER_NAME    = EARTH
REF_FRAME      = TEME
TIME_SYSTEM    = UTC
MEAN_ELEMENT_THEORY = SGP/SGP4

EPOCH          = 2025-11-26T20:14:00.956832
MEAN_MOTION    = 14.15427303
ECCENTRICITY   = .00020078
INCLINATION    = 71.0213
RA_OF_ASC_NODE = 220.1648
ARG_OF_PERICENTER = 120.0166
MEAN_ANOMALY   = 240.1156

EPHEMERIS_TYPE = 0
CLASSIFICATION_TYPE = U
NORAD_CAT_ID   = 22285
ELEMENT_SET_NO = 999
REV_AT_EPOCH   = 69860
BSTAR          = -.86429764E-4
MEAN_MOTION_DOT = -.216E-5
MEAN_MOTION_DDOT = 0

